[{"OBJECT_NAME":"ONEWEB-0243","OBJECT_ID":"2021-045H","EPOCH":"2025-09-29T15:28:14.901024","MEAN_MOTION":13.15547064,"ECCENTRICITY":0.0001429,"INCLINATION":87.9006,"RA_OF_ASC_NODE":311.217,"ARG_OF_PERICENTER":100.1451,"MEAN_ANOMALY":259.984,"EPHEMERIS_TYPE":0,"CLASSIFICATION_TYPE":"U","NORAD_CAT_ID":48774,"ELEMENT_SET_NO":999,"REV_AT_EPOCH":21010,"BSTAR":0.00061626,"MEAN_MOTION_DOT":2.45e-6,"MEAN_MOTION_DDOT":0},{"OBJECT_NAME":"ONEWEB-0222","OBJECT_ID":"2021-045J","EPOCH":"2025-09-29T15:04:18.703200","MEAN_MOTION":13.1554745,"ECCENTRICITY":0.0001723,"INCLINATION":87.9003,"RA_OF_ASC_NODE":311.1725,"ARG_OF_PERICENTER":100.2771,"MEAN_ANOMALY":259.8553,"EPHEMERIS_TYPE":0,"CLASSIFICATION_TYPE":"U","NORAD_CAT_ID":48775,"ELEMENT_SET_NO":999,"REV_AT_EPOCH":21014,"BSTAR":0.00065386,"MEAN_MOTION_DOT":2.59e-6,"MEAN_MOTION_DDOT":0},{"OBJECT_NAME":"ONEWEB-0244","OBJECT_ID":"2021-045K","EPOCH":"2025-09-29T02:55:15.943584","MEAN_MOTION":13.15546547,"ECCENTRICITY":0.00016577,"INCLINATION":87.9011,"RA_OF_ASC_NODE":311.2564,"ARG_OF_PERICENTER":93.8037,"MEAN_ANOMALY":266.3283,"EPHEMERIS_TYPE":0,"CLASSIFICATION_TYPE":"U","NORAD_CAT_ID":48776,"ELEMENT_SET_NO":999,"REV_AT_EPOCH":21064,"BSTAR":9.4879219e-5,"MEAN_MOTION_DOT":4.9e-7,"MEAN_MOTION_DDOT":0},{"OBJECT_NAME":"ONEWEB-0247","OBJECT_ID":"2021-045L","EPOCH":"2025-09-29T02:50:43.308384","MEAN_MOTION":13.15547169,"ECCENTRICITY":9.793e-5,"INCLINATION":87.9001,"RA_OF_ASC_NODE":311.3241,"ARG_OF_PERICENTER":117.8821,"MEAN_ANOMALY":242.2408,"EPHEMERIS_TYPE":0,"CLASSIFICATION_TYPE":"U","NORAD_CAT_ID":48777,"ELEMENT_SET_NO":999,"REV_AT_EPOCH":21008,"BSTAR":9.7752466e-5,"MEAN_MOTION_DOT":5.0e-7,"MEAN_MOTION_DDOT":0},{"OBJECT_NAME":"ONEWEB-0245","OBJECT_ID":"2021-045M","EPOCH":"2025-09-29T15:30:33.033024","MEAN_MOTION":13.15548137,"ECCENTRICITY":0.0001912,"INCLINATION":87.9,"RA_OF_ASC_NODE":311.1829,"ARG_OF_PERICENTER":103.5643,"MEAN_ANOMALY":256.57,"EPHEMERIS_TYPE":0,"CLASSIFICATION_TYPE":"U","NORAD_CAT_ID":48778,"ELEMENT_SET_NO":999,"REV_AT_EPOCH":21012,"BSTAR":0.00039928,"MEAN_MOTION_DOT":1.63e-6,"MEAN_MOTION_DDOT":0},{"OBJECT_NAME":"ONEWEB-0229","OBJECT_ID":"2021-045N","EPOCH":"2025-09-29T13:34:10.242048","MEAN_MOTION":13.15547554,"ECCENTRICITY":0.0001666,"INCLINATION":87.8998,"RA_OF_ASC_NODE":311.1985,"ARG_OF_PERICENTER":92.9017,"MEAN_ANOMALY":267.2304,"EPHEMERIS_TYPE":0,"CLASSIFICATION_TYPE":"U","NORAD_CAT_ID":48779,"ELEMENT_SET_NO":999,"REV_AT_EPOCH":21014,"BSTAR":0.00041103,"MEAN_MOTION_DOT":1.68e-6,"MEAN_MOTION_DDOT":0},{"OBJECT_NAME":"ONEWEB-0228","OBJECT_ID":"2021-045P","EPOCH":"2025-09-29T12:32:45.625056","MEAN_MOTION":13.15546895,"ECCENTRICITY":0.0001708,"INCLINATION":87.9001,"RA_OF_ASC_NODE":311.1833,"ARG_OF_PERICENTER":95.5998,"MEAN_ANOMALY":264.5327,"EPHEMERIS_TYPE":0,"CLASSIFICATION_TYPE":"U","NORAD_CAT_ID":48780,"ELEMENT_SET_NO":999,"REV_AT_EPOCH":21005,"BSTAR":-0.00041594,"MEAN_MOTION_DOT":-1.44e-6,"MEAN_MOTION_DDOT":0},{"OBJECT_NAME":"ONEWEB-0232","OBJECT_ID":"2021-045Q","EPOCH":"2025-09-29T04:37:59.029248","MEAN_MOTION":13.15548448,"ECCENTRICITY":0.00017719,"INCLINATION":87.9,"RA_OF_ASC_NODE":311.2408,"ARG_OF_PERICENTER":94.5494,"MEAN_ANOMALY":265.5839,"EPHEMERIS_TYPE":0,"CLASSIFICATION_TYPE":"U","NORAD_CAT_ID":48781,"ELEMENT_SET_NO":999,"REV_AT_EPOCH":21033,"BSTAR":0.00019593775,"MEAN_MOTION_DOT":8.7e-7,"MEAN_MOTION_DDOT":0},{"OBJECT_NAME":"ONEWEB-0231","OBJECT_ID":"2021-045R","EPOCH":"2025-09-29T15:03:09.933120","MEAN_MOTION":13.15547588,"ECCENTRICITY":0.0001528,"INCLINATION":87.8994,"RA_OF_ASC_NODE":311.2057,"ARG_OF_PERICENTER":98.7701,"MEAN_ANOMALY":261.3603,"EPHEMERIS_TYPE":0,"CLASSIFICATION_TYPE":"U","NORAD_CAT_ID":48782,"ELEMENT_SET_NO":999,"REV_AT_EPOCH":21008,"BSTAR":0.00035348,"MEAN_MOTION_DOT":1.46e-6,"MEAN_MOTION_DDOT":0},{"OBJECT_NAME":"ONEWEB-0234","OBJECT_ID":"2021-045S","EPOCH":"2025-09-29T14:08:12.352704","MEAN_MOTION":13.15545809,"ECCENTRICITY":0.0002705,"INCLINATION":87.9,"RA_OF_ASC_NODE":311.1833,"ARG_OF_PERICENTER":101.6076,"MEAN_ANOMALY":258.5358,"EPHEMERIS_TYPE":0,"CLASSIFICATION_TYPE":"U","NORAD_CAT_ID":48783,"ELEMENT_SET_NO":999,"REV_AT_EPOCH":21021,"BSTAR":-0.00052332,"MEAN_MOTION_DOT":-1.84e-6,"MEAN_MOTION_DDOT":0},{"OBJECT_NAME":"ONEWEB-0238","OBJECT_ID":"2021-045T","EPOCH":"2025-09-29T14:08:35.107872","MEAN_MOTION":13.15550124,"ECCENTRICITY":0.000223,"INCLINATION":87.8999,"RA_OF_ASC_NODE":311.1786,"ARG_OF_PERICENTER":97.8114,"MEAN_ANOMALY":262.327,"EPHEMERIS_TYPE":0,"CLASSIFICATION_TYPE":"U","NORAD_CAT_ID":48784,"ELEMENT_SET_NO":999,"REV_AT_EPOCH":21011,"BSTAR":-0.00018815,"MEAN_MOTION_DOT":-5.8e-7,"MEAN_MOTION_DDOT":0},{"OBJECT_NAME":"ONEWEB-0240","OBJECT_ID":"2021-045U","EPOCH":"2025-09-29T14:39:12.384000","MEAN_MOTION":13.15551659,"ECCENTRICITY":0.0001835,"INCLINATION":87.9004,"RA_OF_ASC_NODE":311.1602,"ARG_OF_PERICENTER":107.5219,"MEAN_ANOMALY":252.6112,"EPHEMERIS_TYPE":0,"CLASSIFICATION_TYPE":"U","NORAD_CAT_ID":48785,"ELEMENT_SET_NO":999,"REV_AT_EPOCH":21014,"BSTAR":-0.00015612,"MEAN_MOTION_DOT":-4.6e-7,"MEAN_MOTION_DDOT":0},{"OBJECT_NAME":"ONEWEB-0246","OBJECT_ID":"2021-045V","EPOCH":"2025-09-29T14:31:11.923968","MEAN_MOTION":13.15550512,"ECCENTRICITY":0.0001653,"INCLINATION":87.9007,"RA_OF_ASC_NODE":311.174,"ARG_OF_PERICENTER":93.7036,"MEAN_ANOMALY":266.4283,"EPHEMERIS_TYPE":0,"CLASSIFICATION_TYPE":"U","NORAD_CAT_ID":48786,"ELEMENT_SET_NO":999,"REV_AT_EPOCH":21001,"BSTAR":-0.00029165,"MEAN_MOTION_DOT":-9.7e-7,"MEAN_MOTION_DDOT":0},{"OBJECT_NAME":"ONEWEB-0210","OBJECT_ID":"2021-045W","EPOCH":"2025-09-29T02:57:33.934752","MEAN_MOTION":13.15550093,"ECCENTRICITY":0.00011155,"INCLINATION":87.901,"RA_OF_ASC_NODE":311.2695,"ARG_OF_PERICENTER":95.1165,"MEAN_ANOMALY":265.0093,"EPHEMERIS_TYPE":0,"CLASSIFICATION_TYPE":"U","NORAD_CAT_ID":48787,"ELEMENT_SET_NO":999,"REV_AT_EPOCH":20999,"BSTAR":-1.799599e-6,"MEAN_MOTION_DOT":1.2e-7,"MEAN_MOTION_DDOT":0},{"OBJECT_NAME":"ONEWEB-0214","OBJECT_ID":"2021-045X","EPOCH":"2025-09-29T14:07:14.588256","MEAN_MOTION":13.15549772,"ECCENTRICITY":0.0001425,"INCLINATION":87.9005,"RA_OF_ASC_NODE":311.164,"ARG_OF_PERICENTER":89.0683,"MEAN_ANOMALY":271.0611,"EPHEMERIS_TYPE":0,"CLASSIFICATION_TYPE":"U","NORAD_CAT_ID":48788,"ELEMENT_SET_NO":999,"REV_AT_EPOCH":21002,"BSTAR":-2.2676e-5,"MEAN_MOTION_DOT":4.0e-8,"MEAN_MOTION_DDOT":0},{"OBJECT_NAME":"ONEWEB-0221","OBJECT_ID":"2021-045Y","EPOCH":"2025-09-29T16:07:02.744256","MEAN_MOTION":13.15547706,"ECCENTRICITY":0.0001674,"INCLINATION":87.8996,"RA_OF_ASC_NODE":311.172,"ARG_OF_PERICENTER":100.6032,"MEAN_ANOMALY":259.5286,"EPHEMERIS_TYPE":0,"CLASSIFICATION_TYPE":"U","NORAD_CAT_ID":48789,"ELEMENT_SET_NO":999,"REV_AT_EPOCH":21012,"BSTAR":-0.00027609,"MEAN_MOTION_DOT":-9.1e-7,"MEAN_MOTION_DDOT":0},{"OBJECT_NAME":"ONEWEB-0213","OBJECT_ID":"2021-045Z","EPOCH":"2025-09-29T14:01:32.236896","MEAN_MOTION":13.15548788,"ECCENTRICITY":0.0001584,"INCLINATION":87.9002,"RA_OF_ASC_NODE":311.1982,"ARG_OF_PERICENTER":94.6993,"MEAN_ANOMALY":265.4319,"EPHEMERIS_TYPE":0,"CLASSIFICATION_TYPE":"U","NORAD_CAT_ID":48790,"ELEMENT_SET_NO":999,"REV_AT_EPOCH":21017,"BSTAR":-0.00051043,"MEAN_MOTION_DOT":-1.79e-6,"MEAN_MOTION_DDOT":0}]
