ONEWEB-0243             
1 48774U 21045H   25272.64461691  .00000245  00000+0  61626-3 0  9991
2 48774  87.9006 311.2170 0001429 100.1451 259.9840 13.15547064210102
ONEWEB-0222             
1 48775U 21045J   25272.62799425  .00000259  00000+0  65386-3 0  9991
2 48775  87.9003 311.1725 0001723 100.2771 259.8553 13.15547450210141
ONEWEB-0244             
1 48776U 21045K   25272.12171231  .00000049  00000+0  94879-4 0  9993
2 48776  87.9011 311.2564 0001657  93.8037 266.3283 13.15546547210645
ONEWEB-0247             
1 48777U 21045L   25272.11855681  .00000050  00000+0  97752-4 0  9996
2 48777  87.9001 311.3241 0000979 117.8821 242.2408 13.15547169210083
ONEWEB-0245             
1 48778U 21045M   25272.64621566  .00000163  00000+0  39928-3 0  9993
2 48778  87.9000 311.1829 0001912 103.5643 256.5700 13.15548137210129
ONEWEB-0229             
1 48779U 21045N   25272.56539632  .00000168  00000+0  41103-3 0  9990
2 48779  87.8998 311.1985 0001666  92.9017 267.2304 13.15547554210143
ONEWEB-0228             
1 48780U 21045P   25272.52275029 -.00000144  00000+0 -41594-3 0  9995
2 48780  87.9001 311.1833 0001708  95.5998 264.5327 13.15546895210059
ONEWEB-0232             
1 48781U 21045Q   25272.19304432  .00000087  00000+0  19594-3 0  9999
2 48781  87.9000 311.2408 0001771  94.5494 265.5839 13.15548448210334
ONEWEB-0231             
1 48782U 21045R   25272.62719830  .00000146  00000+0  35348-3 0  9991
2 48782  87.8994 311.2057 0001528  98.7701 261.3603 13.15547588210082
ONEWEB-0234             
1 48783U 21045S   25272.58903186 -.00000184  00000+0 -52332-3 0  9992
2 48783  87.9000 311.1833 0002705 101.6076 258.5358 13.15545809210214
ONEWEB-0238             
1 48784U 21045T   25272.58929523 -.00000058  00000+0 -18815-3 0  9994
2 48784  87.8999 311.1786 0002230  97.8114 262.3270 13.15550124210111
ONEWEB-0240             
1 48785U 21045U   25272.61056000 -.00000046  00000+0 -15612-3 0  9999
2 48785  87.9004 311.1602 0001835 107.5219 252.6112 13.15551659210146
ONEWEB-0246             
1 48786U 21045V   25272.60499912 -.00000097  00000+0 -29165-3 0  9996
2 48786  87.9007 311.1740 0001653  93.7036 266.4283 13.15550512210019
ONEWEB-0210             
1 48787U 21045W   25272.12330943  .00000012  00000+0 -17996-5 0  9999
2 48787  87.9010 311.2695 0001115  95.1165 265.0093 13.15550093209999
ONEWEB-0214             
1 48788U 21045X   25272.58836329  .00000004  00000+0 -22676-4 0  9990
2 48788  87.9005 311.1640 0001425  89.0683 271.0611 13.15549772210025
ONEWEB-0221             
1 48789U 21045Y   25272.67155954 -.00000091  00000+0 -27609-3 0  9996
2 48789  87.8996 311.1720 0001674 100.6032 259.5286 13.15547706210122
ONEWEB-0213             
1 48790U 21045Z   25272.58440089 -.00000179  00000+0 -51043-3 0  9990
2 48790  87.9002 311.1982 0001584  94.6993 265.4319 13.15548788210170
